KAZSTSAT                
1 43783U 18099AB  26068.61895971  .00001354  00000+0  11446-3 0  9991
2 43783  97.4396 105.0128 0006528  11.1145 349.0222 14.99620503396386
STARLINK-5529           
1 56495U 23064AZ  26068.48435253  .00000152  00000+0  20532-4 0  9993
2 56495  69.9996 104.9006 0003324 264.4846  95.5934 14.98326175156200
